0 COSMOS 1924
1 18937U 88016A   13283.02094726  .00000023  00000-0  27491-3 0  4220
2 18937 074.0024 113.0791 0034101 078.8799 089.3176 12.44558905162462
0 COSMOS 1924
1 18937U 88016A   13285.49556112  .00000011  00000-0  18833-3 0  4233
2 18937 074.0024 109.8185 0034115 075.1292 016.6839 12.44559353162776
0 COSMOS 1924
1 18937U 88016A   13287.50567867 -.00000039  00000-0 -16419-3 0  4247
2 18937 074.0026 107.1698 0034121 072.0881 022.8963 12.44559619163026
0 COSMOS 1924
1 18937U 88016A   13289.83880701 -.00000045  00000-0 -20576-3 0  4257
2 18937 074.0031 104.0954 0034143 068.5817 036.3202 12.44559564163313
0 COSMOS 1924
1 18937U 88016A   13291.92996910 -.00000021  00000-0 -41466-4 0  4267
2 18937 074.0035 101.3401 0034165 065.4131 045.6570 12.44559379163576
0 COSMOS 1924
1 18937U 88016A   13294.16688127  .00000003  00000-0  12747-3 0  4272
2 18937 074.0038 098.3928 0034135 062.0054 348.0361 12.44559118163852
0 COSMOS 1924
1 18937U 88016A   13296.17482404  .00000017  00000-0  22618-3 0  4289
2 18937 074.0039 095.7472 0034146 058.9607 344.5125 12.44559189164104
